[{"OBJECT_NAME":"GAOFEN-11 05","OBJECT_ID":"2024-130A","EPOCH":"2026-03-09T22:37:47.360064","MEAN_MOTION":15.23784242,"ECCENTRICITY":0.00077059,"INCLINATION":97.4051,"RA_OF_ASC_NODE":148.5891,"ARG_OF_PERICENTER":100.8064,"MEAN_ANOMALY":259.4041,"EPHEMERIS_TYPE":0,"CLASSIFICATION_TYPE":"U","NORAD_CAT_ID":60249,"ELEMENT_SET_NO":999,"REV_AT_EPOCH":7035,"BSTAR":0.00034401659,"MEAN_MOTION_DOT":8.217e-5,"MEAN_MOTION_DDOT":0},{"OBJECT_NAME":"CZ-4C R\/B","OBJECT_ID":"2015-069B","EPOCH":"2026-03-09T18:13:41.887776","MEAN_MOTION":15.30824061,"ECCENTRICITY":0.00587215,"INCLINATION":97.486,"RA_OF_ASC_NODE":137.7913,"ARG_OF_PERICENTER":156.3643,"MEAN_ANOMALY":204.0316,"EPHEMERIS_TYPE":0,"CLASSIFICATION_TYPE":"U","NORAD_CAT_ID":41039,"ELEMENT_SET_NO":999,"REV_AT_EPOCH":56689,"BSTAR":0.0003480254,"MEAN_MOTION_DOT":0.00010856,"MEAN_MOTION_DDOT":0}]
